{
  "type": "FeatureCollection",
  "features": [
    {
      "type": "Feature",
      "properties": {
        "norad_id": 66639,
        "name": "STARLINK-35908",
        "group": "last-30-days",
        "lat": 51.539097511420294,
        "lon": -130.1839879730611,
        "alt_km": 439.55164710960435,
        "timestamp": "2025-12-26T18:39:30.995814+00:00",
        "meta_object_name": "STARLINK-35908",
        "meta_object_id": "2025-271Y",
        "meta_epoch": "2025-12-26T13:32:40.421472",
        "meta_mean_motion": 15.39612398,
        "meta_eccentricity": 0.00010787,
        "meta_inclination": 53.1604,
        "meta_ra_of_asc_node": 121.5254,
        "meta_arg_of_pericenter": 82.9007,
        "meta_mean_anomaly": 277.2121,
        "meta_ephemeris_type": 0,
        "meta_classification_type": "U",
        "meta_norad_cat_id": 66639,
        "meta_element_set_no": 999,
        "meta_rev_at_epoch": 634,
        "meta_bstar": 0.0016078582,
        "meta_mean_motion_dot": 0.00064442,
        "meta_mean_motion_ddot": 0,
        "tle_line1": "1 66639U 25271Y   25360.56435673  .00064442  00000+0  16079-2 0  9996",
        "tle_line2": "2 66639  53.1604 121.5254 0001078  82.9007 277.2121 15.39612398  6345"
      },
      "geometry": {
        "type": "Point",
        "coordinates": [
          -130.1839879730611,
          51.539097511420294
        ]
      }
    },
    {
      "type": "Feature",
      "properties": {
        "norad_id": 66640,
        "name": "STARLINK-35921",
        "group": "last-30-days",
        "lat": 37.968066493242816,
        "lon": 156.4308880052499,
        "alt_km": 441.64237953226075,
        "timestamp": "2025-12-26T18:39:30.995824+00:00",
        "meta_object_name": "STARLINK-35921",
        "meta_object_id": "2025-271Z",
        "meta_epoch": "2025-12-26T15:19:31.523520",
        "meta_mean_motion": 15.39611256,
        "meta_eccentricity": 0.00011393,
        "meta_inclination": 53.1603,
        "meta_ra_of_asc_node": 121.278,
        "meta_arg_of_pericenter": 83.7084,
        "meta_mean_anomaly": 276.4051,
        "meta_ephemeris_type": 0,
        "meta_classification_type": "U",
        "meta_norad_cat_id": 66640,
        "meta_element_set_no": 999,
        "meta_rev_at_epoch": 635,
        "meta_bstar": 0.0017157109,
        "meta_mean_motion_dot": 0.00068829,
        "meta_mean_motion_ddot": 0,
        "tle_line1": "1 66640U 25271Z   25360.63855930  .00068829  00000+0  17157-2 0  9999",
        "tle_line2": "2 66640  53.1603 121.2780 0001139  83.7084 276.4051 15.39611256  6355"
      },
      "geometry": {
        "type": "Point",
        "coordinates": [
          156.4308880052499,
          37.968066493242816
        ]
      }
    },
    {
      "type": "Feature",
      "properties": {
        "norad_id": 66641,
        "name": "STARLINK-35923",
        "group": "last-30-days",
        "lat": -37.02468031935535,
        "lon": -25.299542691940353,
        "alt_km": 452.27923867059326,
        "timestamp": "2025-12-26T18:39:30.995835+00:00",
        "meta_object_name": "STARLINK-35923",
        "meta_object_id": "2025-271AA",
        "meta_epoch": "2025-12-26T14:00:04.000032",
        "meta_mean_motion": 15.39600134,
        "meta_eccentricity": 0.00011708,
        "meta_inclination": 53.161,
        "meta_ra_of_asc_node": 121.1824,
        "meta_arg_of_pericenter": 61.8232,
        "meta_mean_anomaly": 170.7053,
        "meta_ephemeris_type": 0,
        "meta_classification_type": "U",
        "meta_norad_cat_id": 66641,
        "meta_element_set_no": 999,
        "meta_rev_at_epoch": 609,
        "meta_bstar": 0.00059575148,
        "meta_mean_motion_dot": 0.00023488,
        "meta_mean_motion_ddot": 0,
        "tle_line1": "1 66641U 25271AA  25360.58337963  .00023488  00000+0  59575-3 0  9998",
        "tle_line2": "2 66641  53.1610 121.1824 0001170  61.8232 170.7053 15.39600134  6091"
      },
      "geometry": {
        "type": "Point",
        "coordinates": [
          -25.299542691940353,
          -37.02468031935535
        ]
      }
    },
    {
      "type": "Feature",
      "properties": {
        "norad_id": 66642,
        "name": "STARLINK-35926",
        "group": "last-30-days",
        "lat": -19.75984981154471,
        "lon": -44.059879079752875,
        "alt_km": 450.9500170234887,
        "timestamp": "2025-12-26T18:39:30.995845+00:00",
        "meta_object_name": "STARLINK-35926",
        "meta_object_id": "2025-271AB",
        "meta_epoch": "2025-12-26T14:00:04.000032",
        "meta_mean_motion": 15.39578313,
        "meta_eccentricity": 0.0001107,
        "meta_inclination": 53.1606,
        "meta_ra_of_asc_node": 121.2312,
        "meta_arg_of_pericenter": 68.0084,
        "meta_mean_anomaly": 140.6872,
        "meta_ephemeris_type": 0,
        "meta_classification_type": "U",
        "meta_norad_cat_id": 66642,
        "meta_element_set_no": 999,
        "meta_rev_at_epoch": 609,
        "meta_bstar": 0.00033656417,
        "meta_mean_motion_dot": 0.00013068,
        "meta_mean_motion_ddot": 0,
        "tle_line1": "1 66642U 25271AB  25360.58337963  .00013068  00000+0  33656-3 0  9994",
        "tle_line2": "2 66642  53.1606 121.2312 0001107  68.0084 140.6872 15.39578313  6092"
      },
      "geometry": {
        "type": "Point",
        "coordinates": [
          -44.059879079752875,
          -19.75984981154471
        ]
      }
    },
    {
      "type": "Feature",
      "properties": {
        "norad_id": 66643,
        "name": "STARLINK-35918",
        "group": "last-30-days",
        "lat": 39.308412816263356,
        "lon": -97.3919612989256,
        "alt_km": 441.57782351605783,
        "timestamp": "2025-12-26T18:39:30.995857+00:00",
        "meta_object_name": "STARLINK-35918",
        "meta_object_id": "2025-271AC",
        "meta_epoch": "2025-12-26T14:59:27.961152",
        "meta_mean_motion": 15.39627616,
        "meta_eccentricity": 0.00011057,
        "meta_inclination": 53.1622,
        "meta_ra_of_asc_node": 121.1909,
        "meta_arg_of_pericenter": 74.7043,
        "meta_mean_anomaly": 285.4084,
        "meta_ephemeris_type": 0,
        "meta_classification_type": "U",
        "meta_norad_cat_id": 66643,
        "meta_element_set_no": 999,
        "meta_rev_at_epoch": 635,
        "meta_bstar": 0.00133332,
        "meta_mean_motion_dot": 0.00053319,
        "meta_mean_motion_ddot": 0,
        "tle_line1": "1 66643U 25271AC  25360.62462918  .00053319  00000+0  13333-2 0  9991",
        "tle_line2": "2 66643  53.1622 121.1909 0001105  74.7043 285.4084 15.39627616  6352"
      },
      "geometry": {
        "type": "Point",
        "coordinates": [
          -97.3919612989256,
          39.308412816263356
        ]
      }
    },
    {
      "type": "Feature",
      "properties": {
        "norad_id": 66644,
        "name": "STARLINK-35938",
        "group": "last-30-days",
        "lat": -18.28590334667416,
        "lon": -45.33577631422548,
        "alt_km": 450.56074211194755,
        "timestamp": "2025-12-26T18:39:30.995871+00:00",
        "meta_object_name": "STARLINK-35938",
        "meta_object_id": "2025-271AD",
        "meta_epoch": "2025-12-26T14:00:04.000032",
        "meta_mean_motion": 15.39606508,
        "meta_eccentricity": 0.0001112,
        "meta_inclination": 53.1605,
        "meta_ra_of_asc_node": 121.2353,
        "meta_arg_of_pericenter": 82.6692,
        "meta_mean_anomaly": 124.0956,
        "meta_ephemeris_type": 0,
        "meta_classification_type": "U",
        "meta_norad_cat_id": 66644,
        "meta_element_set_no": 999,
        "meta_rev_at_epoch": 581,
        "meta_bstar": 0.00044708098,
        "meta_mean_motion_dot": 0.00017516,
        "meta_mean_motion_ddot": 0,
        "tle_line1": "1 66644U 25271AD  25360.58337963  .00017516  00000+0  44708-3 0  9998",
        "tle_line2": "2 66644  53.1605 121.2353 0001112  82.6692 124.0956 15.39606508  5817"
      },
      "geometry": {
        "type": "Point",
        "coordinates": [
          -45.33577631422548,
          -18.28590334667416
        ]
      }
    },
    {
      "type": "Feature",
      "properties": {
        "norad_id": 66645,
        "name": "SHENZHOU-22",
        "group": "last-30-days",
        "lat": -20.88347428493083,
        "lon": 137.04507683942776,
        "alt_km": 387.31806705185863,
        "timestamp": "2025-12-26T18:39:30.995882+00:00",
        "meta_object_name": "SHENZHOU-22",
        "meta_object_id": "2025-272A",
        "meta_epoch": "2025-12-26T05:27:30.670848",
        "meta_mean_motion": 15.59708409,
        "meta_eccentricity": 0.00085179,
        "meta_inclination": 41.468,
        "meta_ra_of_asc_node": 294.7909,
        "meta_arg_of_pericenter": 149.5046,
        "meta_mean_anomaly": 210.6289,
        "meta_ephemeris_type": 0,
        "meta_classification_type": "U",
        "meta_norad_cat_id": 66645,
        "meta_element_set_no": 999,
        "meta_rev_at_epoch": 26598,
        "meta_bstar": 0.00023601706,
        "meta_mean_motion_dot": 0.00019151,
        "meta_mean_motion_ddot": 0,
        "tle_line1": "1 66645U 25272A   25360.22743832  .00019151  00000+0  23602-3 0  9994",
        "tle_line2": "2 66645  41.4680 294.7909 0008517 149.5046 210.6289 15.59708409265988"
      },
      "geometry": {
        "type": "Point",
        "coordinates": [
          137.04507683942776,
          -20.88347428493083
        ]
      }
    }
  ]
}